STARLINK-36307          
1 68306U 26057N   26192.83470959  .00018358  00000+0  56927-3 0  9994
2 68306  97.2876 319.2288 0000729 162.9890 197.1378 15.33462813 17684
STARLINK-36264          
1 68307U 26057P   26193.33499868  .00006965  00000+0  21784-3 0  9995
2 68307  97.2853 319.7751 0000478 163.0584 197.0675 15.33448598 17765
STARLINK-37138          
1 68308U 26057Q   26192.82529394  .00023753  00000+0  65666-3 0  9998
2 68308  97.2864 319.2396 0002268 103.2094 256.9404 15.37026247 17682
STARLINK-37149          
1 68309U 26057R   26192.81568043  .00014490  00000+0  45008-3 0  9998
2 68309  97.2869 319.2555 0001480  70.8526 289.2877 15.33459959 17688
STARLINK-37148          
1 68310U 26057S   26192.86734041  .00020043  00000+0  62158-3 0  9994
2 68310  97.2848 319.3379 0001922 115.9094 244.2347 15.33440439 17691
STARLINK-37140          
1 68311U 26057T   26192.84015022  .00013313  00000+0  41392-3 0  9993
2 68311  97.2867 319.2260 0000559  12.4230 347.7027 15.33450204 17683
STARLINK-36854          
1 68312U 26057U   26193.34587718  .00022854  00000+0  70762-3 0  9999
2 68312  97.2838 319.7602 0002044 104.5072 255.6398 15.33464565 17767
STARLINK-36815          
1 68313U 26057V   26192.86462126  .00015699  00000+0  48743-3 0  9994
2 68313  97.2856 319.3388 0002172 132.3375 227.8052 15.33454852 17690
STARLINK-37155          
1 68314U 26057W   26193.34859745  .00018730  00000+0  58077-3 0  9996
2 68314  97.2854 319.7568 0002026  94.6710 265.4764 15.33459845 17767
STARLINK-37150          
1 68315U 26057X   26193.32684648  .00020857  00000+0  64632-3 0  9990
2 68315  97.2873 319.7810 0002295  91.8102 268.3404 15.33456421 17761
STARLINK-37154          
1 68316U 26057Y   26193.31596885  .00007413  00000+0  23171-3 0  9991
2 68316  97.2869 319.6421 0001133  80.5637 279.5734 15.33443891 17758
STARLINK-37139          
1 68317U 26057Z   26192.83743376  .00012534  00000+0  38989-3 0  9990
2 68317  97.2851 319.2252 0001532  82.2215 277.9201 15.33447710 17689
STARLINK-37113          
1 68318U 26057AA  26193.33335648  .00036052  00000+0  11143-2 0  9999
2 68318  97.2855 319.6568 0000710  77.2414   3.8012 15.33429435  5968
STARLINK-36987          
1 68321U 26059A   26193.20574754  .00009383  00000+0  32850-3 0  9990
2 68321  53.1551 129.6091 0002559  75.5340 284.5944 15.30203875 17249
STARLINK-37088          
1 68322U 26059B   26193.24759365  .00020545  00000+0  61740-3 0  9991
2 68322  53.1572 124.1791 0001090  94.6778 265.4349 15.34406340 17328
STARLINK-36983          
1 68323U 26059C   26193.23707990  .00026046  00000+0  77912-3 0  9998
2 68323  53.1560 124.1202 0002285  70.5114 289.6135 15.34407617 17315
STARLINK-37164          
1 68324U 26059D   26193.22898021  .00019986  00000+0  68562-3 0  9990
2 68324  53.1637 129.7539 0001955  68.2304 291.8905 15.30174023 18378
STARLINK-36309          
1 68325U 26059E   26193.20770741  .00024860  00000+0  74439-3 0  9994
2 68325  53.1581 124.6421 0000897 111.2745 248.8353 15.34402777 17319
STARLINK-37206          
1 68326U 26059F   26192.94764901  .00010811  00000+0  37647-3 0  9997
2 68326  53.1582 130.8424 0002609  64.1220 296.0050 15.30211550 17200
STARLINK-37199          
1 68327U 26059G   26193.25523683  .00012270  00000+0  42566-3 0  9990
2 68327  53.1579 129.2270 0001275 103.9892 256.1250 15.30202979 17252
STARLINK-36245          
1 68328U 26059H   26192.96453460  .00024405  00000+0  83279-3 0  9992
2 68328  53.1573 130.9448 0001704 143.3258 216.7859 15.30224360 17204
STARLINK-37204          
1 68329U 26059J   26192.96390892  .00017740  00000+0  53526-3 0  9998
2 68329  53.1635 125.2631 0001161  20.0556 340.0492 15.34380373 17287
STARLINK-37001          
1 68330U 26059K   26193.21945985  .00017526  00000+0  60244-3 0  9995
2 68330  53.1604 129.7186 0001546  87.2466 272.8712 15.30200830 17249
STARLINK-36932          
1 68331U 26059L   26193.18666291  .00023541  00000+0  70525-3 0  9999
2 68331  53.1604 124.5082 0002214  81.2834 278.8419 15.34418068 17310
STARLINK-37205          
1 68332U 26059M   26188.28508486  .00015447  00000+0  53242-3 0  9999
2 68332  53.1592 152.9423 0001126 112.3198 247.7922 15.30209190 16482
STARLINK-37180          
1 68333U 26059N   26192.21383589  .00010782  00000+0  32953-3 0  9996
2 68333  53.1635 129.1211 0000610 178.3970 181.7035 15.34423708 17164
STARLINK-37191          
1 68334U 26059P   26192.98035555  .00010186  00000+0  35558-3 0  9990
2 68334  53.1570 131.0523 0001672 105.1325 254.9861 15.30198279 17205
STARLINK-37217          
1 68335U 26059Q   26193.28699323  .00016187  00000+0  48885-3 0  9998
2 68335  53.1575 122.2875 0001392 109.7543 250.3610 15.34421128 17358
STARLINK-37143          
1 68336U 26059R   26193.23528631  .00010886  00000+0  37900-3 0  9993
2 68336  53.1575 129.7953 0001138 113.6200 246.4920 15.30210127 17249
STARLINK-36237          
1 68337U 26059S   26193.22865802  .00017978  00000+0  54198-3 0  9994
2 68337  53.1572 124.0563 0001237  80.8083 279.3060 15.34396807 17329
