OBJECT_NAME,OBJECT_ID,EPOCH,MEAN_MOTION,ECCENTRICITY,INCLINATION,RA_OF_ASC_NODE,ARG_OF_PERICENTER,MEAN_ANOMALY,EPHEMERIS_TYPE,CLASSIFICATION_TYPE,NORAD_CAT_ID,ELEMENT_SET_NO,REV_AT_EPOCH,BSTAR,MEAN_MOTION_DOT,MEAN_MOTION_DDOT
STARLINK-36307,2026-057N,2026-07-11T20:01:58.908576,15.33462813,.00007297,97.2876,319.2288,162.9890,197.1378,0,U,68306,999,1768,.56927423E-3,.18358E-3,0
STARLINK-36264,2026-057P,2026-07-12T08:02:23.885952,15.33448598,.00004787,97.2853,319.7751,163.0584,197.0675,0,U,68307,999,1776,.21783572E-3,.6965E-4,0
STARLINK-37138,2026-057Q,2026-07-11T19:48:25.396416,15.37026247,.0002268,97.2864,319.2396,103.2094,256.9404,0,U,68308,999,1768,.65665639E-3,.23753E-3,0
STARLINK-37149,2026-057R,2026-07-11T19:34:34.789152,15.33459959,.00014804,97.2869,319.2555,70.8526,289.2877,0,U,68309,999,1768,.45008125E-3,.1449E-3,0
STARLINK-37148,2026-057S,2026-07-11T20:48:58.211424,15.33440439,.00019222,97.2848,319.3379,115.9094,244.2347,0,U,68310,999,1769,.62157868E-3,.20043E-3,0
STARLINK-37140,2026-057T,2026-07-11T20:09:48.979008,15.33450204,.00005597,97.2867,319.2260,12.4230,347.7027,0,U,68311,999,1768,.41391698E-3,.13313E-3,0
STARLINK-36854,2026-057U,2026-07-12T08:18:03.788352,15.33464565,.00020444,97.2838,319.7602,104.5072,255.6398,0,U,68312,999,1776,.70762247E-3,.22854E-3,0
STARLINK-36815,2026-057V,2026-07-11T20:45:03.276864,15.33454852,.00021721,97.2856,319.3388,132.3375,227.8052,0,U,68313,999,1769,.48743035E-3,.15699E-3,0
STARLINK-37155,2026-057W,2026-07-12T08:21:58.819680,15.33459845,.00020261,97.2854,319.7568,94.6710,265.4764,0,U,68314,999,1776,.5807682E-3,.1873E-3,0
STARLINK-37150,2026-057X,2026-07-12T07:50:39.535872,15.33456421,.00022958,97.2873,319.7810,91.8102,268.3404,0,U,68315,999,1776,.64631516E-3,.20857E-3,0
STARLINK-37154,2026-057Y,2026-07-12T07:34:59.708640,15.33443891,.00011337,97.2869,319.6421,80.5637,279.5734,0,U,68316,999,1775,.23171275E-3,.7413E-4,0
STARLINK-37139,2026-057Z,2026-07-11T20:05:54.276864,15.33447710,.00015323,97.2851,319.2252,82.2215,277.9201,0,U,68317,999,1768,.38988572E-3,.12534E-3,0
STARLINK-37113,2026-057AA,2026-07-12T08:00:01.999872,15.33429435,.00007109,97.2855,319.6568,77.2414,3.8012,0,U,68318,999,596,.11142687E-2,.36052E-3,0
STARLINK-36987,2026-059A,2026-07-12T04:56:16.587456,15.30203875,.00025592,53.1551,129.6091,75.5340,284.5944,0,U,68321,999,1724,.32850322E-3,.9383E-4,0
STARLINK-37088,2026-059B,2026-07-12T05:56:32.091360,15.34406340,.000109,53.1572,124.1791,94.6778,265.4349,0,U,68322,999,1732,.6174E-3,.20545E-3,0
STARLINK-36983,2026-059C,2026-07-12T05:41:23.703360,15.34407617,.0002285,53.1560,124.1202,70.5114,289.6135,0,U,68323,999,1731,.77912E-3,.26046E-3,0
STARLINK-37164,2026-059D,2026-07-12T05:29:43.890144,15.30174023,.0001955,53.1637,129.7539,68.2304,291.8905,0,U,68324,999,1837,.68562E-3,.19986E-3,0
STARLINK-36309,2026-059E,2026-07-12T04:59:05.920224,15.34402777,.00008978,53.1581,124.6421,111.2745,248.8353,0,U,68325,999,1731,.74439036E-3,.2486E-3,0
STARLINK-37206,2026-059F,2026-07-11T22:44:36.874464,15.30211550,.00026099,53.1582,130.8424,64.1220,296.0050,0,U,68326,999,1720,.3764727E-3,.10811E-3,0
STARLINK-37199,2026-059G,2026-07-12T06:07:32.462112,15.30202979,.0001275,53.1579,129.2270,103.9892,256.1250,0,U,68327,999,1725,.42566E-3,.1227E-3,0
STARLINK-36245,2026-059H,2026-07-11T23:08:55.789440,15.30224360,.00017042,53.1573,130.9448,143.3258,216.7859,0,U,68328,999,1720,.83278563E-3,.24405E-3,0
STARLINK-37204,2026-059J,2026-07-11T23:08:01.730688,15.34380373,.00011613,53.1635,125.2631,20.0556,340.0492,0,U,68329,999,1728,.5352611E-3,.1774E-3,0
STARLINK-37001,2026-059K,2026-07-12T05:16:01.331040,15.30200830,.0001546,53.1604,129.7186,87.2466,272.8712,0,U,68330,999,1724,.60244E-3,.17526E-3,0
STARLINK-36932,2026-059L,2026-07-12T04:28:47.675424,15.34418068,.0002214,53.1604,124.5082,81.2834,278.8419,0,U,68331,999,1731,.70525321E-3,.23541E-3,0
STARLINK-37205,2026-059M,2026-07-07T06:50:31.331904,15.30209190,.00011267,53.1592,152.9423,112.3198,247.7922,0,U,68332,999,1648,.53242431E-3,.15447E-3,0
STARLINK-37180,2026-059N,2026-07-11T05:07:55.420896,15.34423708,.00006105,53.1635,129.1211,178.3970,181.7035,0,U,68333,999,1716,.32953159E-3,.10782E-3,0
STARLINK-37191,2026-059P,2026-07-11T23:31:42.719520,15.30198279,.00016726,53.1570,131.0523,105.1325,254.9861,0,U,68334,999,1720,.35557795E-3,.10186E-3,0
STARLINK-37217,2026-059Q,2026-07-12T06:53:16.215072,15.34421128,.0001392,53.1575,122.2875,109.7543,250.3610,0,U,68335,999,1735,.48885E-3,.16187E-3,0
STARLINK-37143,2026-059R,2026-07-12T05:38:48.737184,15.30210127,.0001138,53.1575,129.7953,113.6200,246.4920,0,U,68336,999,1724,.379E-3,.10886E-3,0
STARLINK-36237,2026-059S,2026-07-12T05:29:16.052928,15.34396807,.0001237,53.1572,124.0563,80.8083,279.3060,0,U,68337,999,1732,.54198E-3,.17978E-3,0
